NORAD_CAT_ID,OBJECT_NAME,OBJECT_TYPE,EPOCH,MEAN_MOTION,ECCENTRICITY,INCLINATION,RA_OF_ASC_NODE,ARG_OF_PERICENTER,MEAN_ANOMALY,BSTAR,MEAN_MOTION_DOT,MEAN_MOTION_DDOT,TLE_LINE0,TLE_LINE1,TLE_LINE2,SEMIMAJOR_AXIS,PERIOD,APOGEE,PERIGEE,DECAYED
53740.0,STARLINK-4607,PAYLOAD,2024-01-04 23:58:29,15.08836734,0.0001411,53.2157,231.5193,96.5244,263.5909,6.8996e-05,8.1e-06,0.0,0 STARLINK-4607,1 53740U 22107AS  24004.99895576  .00000810  00000-0  68996-4 0  9990,2 53740  53.2157 231.5193 0001411  96.5244 263.5909 15.08836734 74623,6917.89,95.438,540.731,538.779,0.0
53740.0,STARLINK-4607,PAYLOAD,2024-01-05 22:13:53,15.08837822,0.0001387,53.2156,227.3562,97.5511,262.5639,9.7635e-05,1.266e-05,0.0,0 STARLINK-4607,1 53740U 22107AS  24005.92631758  .00001266  00000-0  97635-4 0  9992,2 53740  53.2156 227.3562 0001387  97.5511 262.5639 15.08837822 74768,6917.887,95.438,540.712,538.793,0.0
53740.0,STARLINK-4607,PAYLOAD,2024-01-06 22:04:41,15.08840161,0.0001395,53.2155,222.8956,94.2259,265.8892,7.1938e-05,8.57e-06,0.0,0 STARLINK-4607,1 53740U 22107AS  24006.91991912  .00000857  00000-0  71938-4 0  9996,2 53740  53.2155 222.8956 0001395  94.2259 265.8892 15.08840161 74910,6917.88,95.438,540.71,538.78,0.0
53740.0,STARLINK-4607,PAYLOAD,2024-01-06 23:40:04,15.08840423,0.0001396,53.2155,222.5982,94.0951,266.0201,7.2748e-05,8.7e-06,0.0,0 STARLINK-4607,1 53740U 22107AS  24006.98615896  .00000870  00000-0  72748-4 0  9992,2 53740  53.2155 222.5982 0001396  94.0951 266.0201 15.08840423 74147,6917.879,95.438,540.71,538.778,0.0
53740.0,STARLINK-4607,PAYLOAD,2024-01-07 20:20:05,15.08840801,0.0001424,53.2155,218.7325,89.0082,271.1073,6.2431e-05,7.06e-06,0.0,0 STARLINK-4607,1 53740U 22107AS  24007.84728070  .00000706  00000-0  62431-4 0  9993,2 53740  53.2155 218.7325 0001424  89.0082 271.1073 15.08840801 75051,6917.878,95.438,540.728,538.758,0.0
53740.0,STARLINK-4607,PAYLOAD,2024-01-08 20:10:51,15.08845863,0.0001421,53.2157,214.2714,89.6844,270.4311,8.5543e-05,1.074e-05,0.0,0 STARLINK-4607,1 53740U 22107AS  24008.84087551  .00001074  00000-0  85543-4 0  9994,2 53740  53.2157 214.2714 0001421  89.6844 270.4311 15.08845863 74425,6917.862,95.437,540.71,538.744,0.0
53740.0,STARLINK-4607,PAYLOAD,2024-01-09 13:40:06,15.0884303,0.0001496,53.2163,211.0006,90.3746,269.7417,4.9172e-05,4.95e-06,0.0,0 STARLINK-4607,1 53740U 22107AS  24009.56951796  .00000495  00000-0  49172-4 0  9999,2 53740  53.2163 211.0006 0001496  90.3746 269.7417 15.08843030 75314,6917.871,95.437,540.771,538.701,0.0
53740.0,STARLINK-4607,PAYLOAD,2024-01-09 20:01:38,15.08842574,0.000142,53.2161,209.809,95.4896,264.6258,3.6835e-05,2.98e-06,0.0,0 STARLINK-4607,1 53740U 22107AS  24009.83447725  .00000298  00000-0  36835-4 0  9994,2 53740  53.2161 209.8090 0001420  95.4896 264.6258 15.08842574 74575,6917.873,95.437,540.72,538.755,0.0
53740.0,STARLINK-4607,PAYLOAD,2024-01-10 18:17:03,15.08837145,0.0001416,53.2159,205.6465,91.5095,268.6059,2.3104e-06,-2.51e-06,0.0,0 STARLINK-4607,1 53740U 22107AS  24010.76184247 -.00000251  00000-0  23104-5 0  9991,2 53740  53.2159 205.6465 0001416  91.5095 268.6059 15.08837145 74712,6917.889,95.438,540.734,538.775,0.0
53740.0,STARLINK-4607,PAYLOAD,2024-01-11 11:46:17,15.08838746,0.0001382,53.2158,202.3755,91.9143,268.2008,5.6371e-05,6.09e-06,0.0,0 STARLINK-4607,1 53740U 22107AS  24011.49048082  .00000609  00000-0  56371-4 0  9995,2 53740  53.2158 202.3755 0001382  91.9143 268.2008 15.08838746 75604,6917.884,95.438,540.705,538.793,0.0
53740.0,STARLINK-4607,PAYLOAD,2024-01-11 19:43:12,15.08843424,0.0001372,53.2154,200.8896,91.636,268.4789,9.7541e-05,1.265e-05,0.0,0 STARLINK-4607,1 53740U 22107AS  24011.82167682  .00001265  00000-0  97541-4 0  9993,2 53740  53.2154 200.8896 0001372  91.6360 268.4789 15.08843424 74871,6917.87,95.437,540.684,538.786,0.0
53740.0,STARLINK-4607,PAYLOAD,2024-01-12 19:34:01,15.08798357,0.0001557,53.2149,196.4298,93.2078,266.9092,0.00058669,9.051e-05,0.0,0 STARLINK-4607,1 53740U 22107AS  24012.81529258  .00009051  00000-0  58669-3 0  9992,2 53740  53.2149 196.4298 0001557  93.2078 266.9092 15.08798357 75022,6918.008,95.44,540.95,538.796,0.0
53740.0,STARLINK-4607,PAYLOAD,2024-01-12 21:09:24,15.08809137,0.0001534,53.2149,196.1322,97.4495,262.6672,0.00047565,7.284e-05,0.0,0 STARLINK-4607,1 53740U 22107AS  24012.88152986  .00007284  00000-0  47565-3 0  9998,2 53740  53.2149 196.1322 0001534  97.4495 262.6672 15.08809137 75814,6917.975,95.44,540.901,538.779,0.0
53740.0,STARLINK-4607,PAYLOAD,2024-01-12 22:44:46,15.08830092,0.0001426,53.2156,195.8351,93.8042,266.3113,0.00017289,2.464e-05,0.0,0 STARLINK-4607,1 53740U 22107AS  24012.94776548  .00002464  00000-0  17289-3 0  9996,2 53740  53.2156 195.8351 0001426  93.8042 266.3113 15.08830092 75048,6917.911,95.438,540.762,538.789,0.0
53740.0,STARLINK-4607,PAYLOAD,2024-01-13 17:49:24,15.08841126,0.0001444,53.2163,192.2669,99.9035,260.212,3.3667e-05,2.48e-06,0.0,0 STARLINK-4607,1 53740U 22107AS  24013.74264286  .00000248  00000-0  33667-4 0  9993,2 53740  53.2163 192.2669 0001444  99.9035 260.2120 15.08841126 75162,6917.877,95.437,540.741,538.743,0.0
53740.0,STARLINK-4607,PAYLOAD,2024-01-14 11:18:38,15.08840351,0.000144,53.2168,188.9952,95.6117,264.504,7.5936e-05,9.21e-06,0.0,0 STARLINK-4607,1 53740U 22107AS  24014.47128235  .00000921  00000-0  75936-4 0  9990,2 53740  53.2168 188.9952 0001440  95.6117 264.5040 15.08840351 76050,6917.879,95.438,540.74,538.748,0.0
53740.0,STARLINK-4607,PAYLOAD,2024-01-14 17:40:11,15.08843849,0.0001433,53.2165,187.8061,97.2269,262.8886,0.0001013,1.325e-05,0.0,0 STARLINK-4607,1 53740U 22107AS  24014.73623936  .00001325  00000-0  10130-3 0  9990,2 53740  53.2165 187.8061 0001433  97.2269 262.8886 15.08843849 76092,6917.869,95.437,540.725,538.742,0.0
53740.0,STARLINK-4607,PAYLOAD,2024-01-15 11:09:25,15.08842002,0.0001523,53.217,184.5363,91.9449,268.1718,8.255e-05,1.026e-05,0.0,0 STARLINK-4607,1 53740U 22107AS  24015.46488125  .00001026  00000-0  82550-4 0  9994,2 53740  53.2170 184.5363 0001523  91.9449 268.1718 15.08842002 75427,6917.874,95.437,540.793,538.686,0.0
53740.0,STARLINK-4607,PAYLOAD,2024-01-15 17:30:58,15.08842974,0.0001472,53.2166,183.3466,90.8945,269.2216,6.4058e-05,7.32e-06,0.0,0 STARLINK-4607,1 53740U 22107AS  24015.72984060  .00000732  00000-0  64058-4 0  9998,2 53740  53.2166 183.3466 0001472  90.8945 269.2216 15.08842974 76249,6917.871,95.437,540.755,538.718,0.0
53740.0,STARLINK-4607,PAYLOAD,2024-01-16 11:00:13,15.08839643,0.0001594,53.2164,180.0764,77.6415,282.4755,2.8173e-05,1.6e-06,0.0,0 STARLINK-4607,1 53740U 22107AS  24016.45848447  .00000160  00000-0  28173-4 0  9990,2 53740  53.2164 180.0764 0001594  77.6415 282.4755 15.08839643 75571,6917.881,95.438,540.849,538.644,0.0
53740.0,STARLINK-4607,PAYLOAD,2024-01-16 14:10:59,15.08838978,0.0001503,53.2163,179.4811,87.204,272.9124,1.9507e-05,2.2e-07,0.0,0 STARLINK-4607,1 53740U 22107AS  24016.59096430  .00000022  00000-0  19507-4 0  9990,2 53740  53.2163 179.4811 0001503  87.2040 272.9124 15.08838978 76379,6917.884,95.438,540.788,538.709,0.0
53740.0,STARLINK-4607,PAYLOAD,2024-01-16 17:21:45,15.0883945,0.0001515,53.2166,178.8865,88.8393,271.2773,1.9528e-05,2.3e-07,0.0,0 STARLINK-4607,1 53740U 22107AS  24016.72344378  .00000023  00000-0  19528-4 0  9996,2 53740  53.2166 178.8865 0001515  88.8393 271.2773 15.08839450 76395,6917.882,95.438,540.795,538.699,0.0
53740.0,STARLINK-4607,PAYLOAD,2024-01-16 22:07:54,15.08846267,0.0001382,53.2153,177.9929,82.2347,277.8802,6.687e-05,7.77e-06,0.0,0 STARLINK-4607,1 53740U 22107AS  24016.92215738  .00000777  00000-0  66870-4 0  9993,2 53740  53.2153 177.9929 0001382  82.2347 277.8802 15.08846267 75647,6917.861,95.437,540.682,538.77,0.0
53740.0,STARLINK-4607,PAYLOAD,2024-01-17 09:15:37,15.08830961,0.0001422,53.2165,175.9133,75.3588,284.7562,-1.2611e-05,-4.89e-06,0.0,0 STARLINK-4607,1 53740U 22107AS  24017.38585072 -.00000489  00000-0 -12611-4 0  9991,2 53740  53.2165 175.9133 0001422  75.3588 284.7562 15.08830961 75712,6917.908,95.438,540.757,538.789,0.0
53740.0,STARLINK-4607,PAYLOAD,2024-01-17 14:01:46,15.08839704,0.0001503,53.215,175.0113,130.7732,229.3391,-6.576e-05,-1.334e-05,0.0,0 STARLINK-4607,1 53740U 22107AS  24017.58456366 -.00001334  00000-0 -65760-4 0  9999,2 53740  53.2150 175.0113 0001503 130.7732 229.3391 15.08839704 76521,6917.881,95.438,540.786,538.707,0.0
53740.0,STARLINK-4607,PAYLOAD,2024-01-17 17:12:32,15.08838984,0.0001376,53.2159,174.425,84.3627,275.7522,4.3765e-05,4.09e-06,0.0,0 STARLINK-4607,1 53740U 22107AS  24017.71704460  .00000409  00000-0  43765-4 0  9996,2 53740  53.2159 174.4250 0001376  84.3627 275.7522 15.08838984 75765,6917.883,95.438,540.7,538.797,0.0
53740.0,STARLINK-4607,PAYLOAD,2024-01-18 13:52:33,15.08838226,0.0001303,53.2159,170.556,93.2214,266.8927,3.4275e-05,2.58e-06,0.0,0 STARLINK-4607,1 53740U 22107AS  24018.57816737  .00000258  00000-0  34275-4 0  9990,2 53740  53.2159 170.5560 0001303  93.2214 266.8927 15.08838226 76677,6917.886,95.438,540.652,538.849,0.0
53740.0,STARLINK-4607,PAYLOAD,2024-01-18 15:27:56,15.08839933,0.0001319,53.2159,170.2591,91.0128,269.1016,5.2931e-05,5.55e-06,0.0,0 STARLINK-4607,1 53740U 22107AS  24018.64440604  .00000555  00000-0  52931-4 0  9993,2 53740  53.2159 170.2591 0001319  91.0128 269.1016 15.08839933 76687,6917.881,95.438,540.658,538.833,0.0
53740.0,STARLINK-4607,PAYLOAD,2024-01-19 13:43:20,15.08836244,0.0001329,53.2165,166.0958,95.7297,264.3847,7.883e-05,9.67e-06,0.0,0 STARLINK-4607,1 53740U 22107AS  24019.57176926  .00000967  00000-0  78830-4 0  9992,2 53740  53.2165 166.0958 0001329  95.7297 264.3847 15.08836244 76820,6917.892,95.438,540.676,538.837,0.0
53740.0,STARLINK-4607,PAYLOAD,2024-01-19 15:18:43,15.08837148,0.0001327,53.2166,165.7984,92.3323,267.7821,8.5671e-05,1.076e-05,0.0,0 STARLINK-4607,1 53740U 22107AS  24019.63800878  .00001076  00000-0  85671-4 0  9992,2 53740  53.2166 165.7984 0001327  92.3323 267.7821 15.08837148 76055,6917.889,95.438,540.672,538.836,0.0
